{"type": "FeatureCollection", "features": [{"type": "Feature", "properties": {"norad_id": 22675, "name": "COSMOS 2251", "group": "cosmos-2251-debris", "lat": 60.92201940087693, "lon": 117.6150736023758, "alt_km": 766.6404041429032, "timestamp": "2025-12-05T18:53:13.674036+00:00", "meta": {"OBJECT_NAME": "COSMOS 2251", "OBJECT_ID": "1993-036A", "EPOCH": "2025-12-05T06:37:47.574048", "MEAN_MOTION": 14.33201224, "ECCENTRICITY": 0.00237308, "INCLINATION": 74.0394, "RA_OF_ASC_NODE": 329.5212, "ARG_OF_PERICENTER": 54.1188, "MEAN_ANOMALY": 306.2162, "EPHEMERIS_TYPE": 0, "CLASSIFICATION_TYPE": "U", "NORAD_CAT_ID": 22675, "ELEMENT_SET_NO": 999, "REV_AT_EPOCH": 69666, "BSTAR": 9.3399638e-05, "MEAN_MOTION_DOT": 2.32e-06, "MEAN_MOTION_DDOT": 0}, "tle": {"line1": "1 22675U 93036A   25339.27624507  .00000232  00000+0  93400-4 0  9994", "line2": "2 22675  74.0394 329.5212 0023730  54.1188 306.2162 14.33201224696662"}}, "geometry": {"type": "Point", "coordinates": [117.6150736023758, 60.92201940087693]}}, {"type": "Feature", "properties": {"norad_id": 33757, "name": "COSMOS 2251 DEB", "group": "cosmos-2251-debris", "lat": 10.700299660001319, "lon": 153.20350993355675, "alt_km": 794.9483220675493, "timestamp": "2025-12-05T18:53:13.674083+00:00", "meta": {"OBJECT_NAME": "COSMOS 2251 DEB", "OBJECT_ID": "1993-036E", "EPOCH": "2025-12-05T06:51:27.033120", "MEAN_MOTION": 14.32578022, "ECCENTRICITY": 0.00149649, "INCLINATION": 74.0367, "RA_OF_ASC_NODE": 337.2186, "ARG_OF_PERICENTER": 351.9316, "MEAN_ANOMALY": 112.8461, "EPHEMERIS_TYPE": 0, "CLASSIFICATION_TYPE": "U", "NORAD_CAT_ID": 33757, "ELEMENT_SET_NO": 999, "REV_AT_EPOCH": 87889, "BSTAR": 8.167443e-05, "MEAN_MOTION_DOT": 1.96e-06, "MEAN_MOTION_DDOT": 0}, "tle": {"line1": "1 33757U 93036E   25339.28572955  .00000196  00000+0  81674-4 0  9996", "line2": "2 33757  74.0367 337.2186 0014964 351.9316 112.8461 14.32578022878893"}}, "geometry": {"type": "Point", "coordinates": [153.20350993355675, 10.700299660001319]}}, {"type": "Feature", "properties": {"norad_id": 33758, "name": "COSMOS 2251 DEB", "group": "cosmos-2251-debris", "lat": -0.41675414176390785, "lon": -131.99430711385676, "alt_km": 717.9317999435307, "timestamp": "2025-12-05T18:53:13.674101+00:00", "meta": {"OBJECT_NAME": "COSMOS 2251 DEB", "OBJECT_ID": "1993-036F", "EPOCH": "2025-12-05T04:34:40.872576", "MEAN_MOTION": 14.51519877, "ECCENTRICITY": 0.00175561, "INCLINATION": 74.0288, "RA_OF_ASC_NODE": 229.2474, "ARG_OF_PERICENTER": 296.6032, "MEAN_ANOMALY": 188.6657, "EPHEMERIS_TYPE": 0, "CLASSIFICATION_TYPE": "U", "NORAD_CAT_ID": 33758, "ELEMENT_SET_NO": 999, "REV_AT_EPOCH": 88195, "BSTAR": 0.0017448831, "MEAN_MOTION_DOT": 6.971e-05, "MEAN_MOTION_DDOT": 0}, "tle": {"line1": "1 33758U 93036F   25339.19075084  .00006971  00000+0  17449-2 0  9992", "line2": "2 33758  74.0288 229.2474 0017556 296.6032 188.6657 14.51519877881959"}}, "geometry": {"type": "Point", "coordinates": [-131.99430711385676, -0.41675414176390785]}}, {"type": "Feature", "properties": {"norad_id": 33760, "name": "COSMOS 2251 DEB", "group": "cosmos-2251-debris", "lat": -20.67472298638877, "lon": -71.98617899741207, "alt_km": 769.8852116426078, "timestamp": "2025-12-05T18:53:13.674114+00:00", "meta": {"OBJECT_NAME": "COSMOS 2251 DEB", "OBJECT_ID": "1993-036H", "EPOCH": "2025-12-05T07:58:55.057152", "MEAN_MOTION": 14.35664545, "ECCENTRICITY": 0.00195579, "INCLINATION": 74.0317, "RA_OF_ASC_NODE": 295.0504, "ARG_OF_PERICENTER": 35.5072, "MEAN_ANOMALY": 115.7617, "EPHEMERIS_TYPE": 0, "CLASSIFICATION_TYPE": "U", "NORAD_CAT_ID": 33760, "ELEMENT_SET_NO": 999, "REV_AT_EPOCH": 88018, "BSTAR": 0.00020515584, "MEAN_MOTION_DOT": 5.67e-06, "MEAN_MOTION_DDOT": 0}, "tle": {"line1": "1 33760U 93036H   25339.33258168  .00000567  00000+0  20516-3 0  9992", "line2": "2 33760  74.0317 295.0504 0019557  35.5072 115.7617 14.35664545880183"}}, "geometry": {"type": "Point", "coordinates": [-71.98617899741207, -20.67472298638877]}}, {"type": "Feature", "properties": {"norad_id": 33761, "name": "COSMOS 2251 DEB", "group": "cosmos-2251-debris", "lat": 72.87155808121256, "lon": 16.81794370457314, "alt_km": 748.3893846224346, "timestamp": "2025-12-05T18:53:13.674126+00:00", "meta": {"OBJECT_NAME": "COSMOS 2251 DEB", "OBJECT_ID": "1993-036J", "EPOCH": "2025-12-04T21:04:01.127712", "MEAN_MOTION": 14.42504735, "ECCENTRICITY": 0.0022795, "INCLINATION": 74.037, "RA_OF_ASC_NODE": 266.7483, "ARG_OF_PERICENTER": 348.175, "MEAN_ANOMALY": 68.3837, "EPHEMERIS_TYPE": 0, "CLASSIFICATION_TYPE": "U", "NORAD_CAT_ID": 33761, "ELEMENT_SET_NO": 999, "REV_AT_EPOCH": 88121, "BSTAR": 0.0010906, "MEAN_MOTION_DOT": 3.601e-05, "MEAN_MOTION_DDOT": 0}, "tle": {"line1": "1 33761U 93036J   25338.87779083  .00003601  00000+0  10906-2 0  9998", "line2": "2 33761  74.0370 266.7483 0022795 348.1750  68.3837 14.42504735881212"}}, "geometry": {"type": "Point", "coordinates": [16.81794370457314, 72.87155808121256]}}, {"type": "Feature", "properties": {"norad_id": 33762, "name": "COSMOS 2251 DEB", "group": "cosmos-2251-debris", "lat": -31.904441428507237, "lon": -47.52243920839837, "alt_km": 779.8803651977878, "timestamp": "2025-12-05T18:53:13.674137+00:00", "meta": {"OBJECT_NAME": "COSMOS 2251 DEB", "OBJECT_ID": "1993-036K", "EPOCH": "2025-12-05T07:50:42.344736", "MEAN_MOTION": 14.33660112, "ECCENTRICITY": 0.00147039, "INCLINATION": 74.0413, "RA_OF_ASC_NODE": 323.58, "ARG_OF_PERICENTER": 27.2501, "MEAN_ANOMALY": 86.0231, "EPHEMERIS_TYPE": 0, "CLASSIFICATION_TYPE": "U", "NORAD_CAT_ID": 33762, "ELEMENT_SET_NO": 999, "REV_AT_EPOCH": 87941, "BSTAR": 9.1401128e-05, "MEAN_MOTION_DOT": 2.28e-06, "MEAN_MOTION_DDOT": 0}, "tle": {"line1": "1 33762U 93036K   25339.32687899  .00000228  00000+0  91401-4 0  9996", "line2": "2 33762  74.0413 323.5800 0014703  27.2501  86.0231 14.33660112879411"}}, "geometry": {"type": "Point", "coordinates": [-47.52243920839837, -31.904441428507237]}}, {"type": "Feature", "properties": {"norad_id": 33764, "name": "COSMOS 2251 DEB", "group": "cosmos-2251-debris", "lat": -37.33727223999215, "lon": -87.11892848750254, "alt_km": 759.8813250730609, "timestamp": "2025-12-05T18:53:13.674148+00:00", "meta": {"OBJECT_NAME": "COSMOS 2251 DEB", "OBJECT_ID": "1993-036M", "EPOCH": "2025-12-05T08:08:50.697888", "MEAN_MOTION": 14.39484318, "ECCENTRICITY": 0.00242185, "INCLINATION": 74.0333, "RA_OF_ASC_NODE": 286.322, "ARG_OF_PERICENTER": 253.2835, "MEAN_ANOMALY": 269.425, "EPHEMERIS_TYPE": 0, "CLASSIFICATION_TYPE": "U", "NORAD_CAT_ID": 33764, "ELEMENT_SET_NO": 999, "REV_AT_EPOCH": 88050, "BSTAR": 0.00067069589, "MEAN_MOTION_DOT": 2.071e-05, "MEAN_MOTION_DDOT": 0}, "tle": {"line1": "1 33764U 93036M   25339.33947567  .00002071  00000+0  67070-3 0  9992", "line2": "2 33764  74.0333 286.3220 0024218 253.2835 269.4250 14.39484318880507"}}, "geometry": {"type": "Point", "coordinates": [-87.11892848750254, -37.33727223999215]}}, {"type": "Feature", "properties": {"norad_id": 33765, "name": "COSMOS 2251 DEB", "group": "cosmos-2251-debris", "lat": -13.625041214375424, "lon": 11.46022495880875, "alt_km": 539.5511614071629, "timestamp": "2025-12-05T18:53:13.674159+00:00", "meta": {"OBJECT_NAME": "COSMOS 2251 DEB", "OBJECT_ID": "1993-036N", "EPOCH": "2025-12-05T07:39:37.215936", "MEAN_MOTION": 15.09306601, "ECCENTRICITY": 0.00672088, "INCLINATION": 74.0103, "RA_OF_ASC_NODE": 188.4404, "ARG_OF_PERICENTER": 281.978, "MEAN_ANOMALY": 252.2014, "EPHEMERIS_TYPE": 0, "CLASSIFICATION_TYPE": "U", "NORAD_CAT_ID": 33765, "ELEMENT_SET_NO": 999, "REV_AT_EPOCH": 89506, "BSTAR": 0.0033940439, "MEAN_MOTION_DOT": 0.0005747, "MEAN_MOTION_DDOT": 0}, "tle": {"line1": "1 33765U 93036N   25339.31918074  .00057470  00000+0  33940-2 0  9993", "line2": "2 33765  74.0103 188.4404 0067208 281.9780 252.2014 15.09306601895063"}}, "geometry": {"type": "Point", "coordinates": [11.46022495880875, -13.625041214375424]}}, {"type": "Feature", "properties": {"norad_id": 33766, "name": "COSMOS 2251 DEB", "group": "cosmos-2251-debris", "lat": 58.620118662172, "lon": -60.087219755506894, "alt_km": 795.0056005965862, "timestamp": "2025-12-05T18:53:13.674170+00:00", "meta": {"OBJECT_NAME": "COSMOS 2251 DEB", "OBJECT_ID": "1993-036P", "EPOCH": "2025-12-04T22:15:54.874944", "MEAN_MOTION": 14.34899715, "ECCENTRICITY": 0.0063773, "INCLINATION": 74.1848, "RA_OF_ASC_NODE": 149.1645, "ARG_OF_PERICENTER": 354.7304, "MEAN_ANOMALY": 5.3169, "EPHEMERIS_TYPE": 0, "CLASSIFICATION_TYPE": "U", "NORAD_CAT_ID": 33766, "ELEMENT_SET_NO": 999, "REV_AT_EPOCH": 87633, "BSTAR": 0.0010023, "MEAN_MOTION_DOT": 2.891e-05, "MEAN_MOTION_DDOT": 0}, "tle": {"line1": "1 33766U 93036P   25338.92771846  .00002891  00000+0  10023-2 0  9998", "line2": "2 33766  74.1848 149.1645 0063773 354.7304   5.3169 14.34899715876333"}}, "geometry": {"type": "Point", "coordinates": [-60.087219755506894, 58.620118662172]}}, {"type": "Feature", "properties": {"norad_id": 33768, "name": "COSMOS 2251 DEB", "group": "cosmos-2251-debris", "lat": 19.181112019513833, "lon": 45.38563808652389, "alt_km": 1207.9928978926955, "timestamp": "2025-12-05T18:53:13.674181+00:00", "meta": {"OBJECT_NAME": "COSMOS 2251 DEB", "OBJECT_ID": "1993-036R", "EPOCH": "2025-12-05T04:44:14.311968", "MEAN_MOTION": 13.58445141, "ECCENTRICITY": 0.03659347, "INCLINATION": 74.0687, "RA_OF_ASC_NODE": 232.039, "ARG_OF_PERICENTER": 31.4405, "MEAN_ANOMALY": 123.0069, "EPHEMERIS_TYPE": 0, "CLASSIFICATION_TYPE": "U", "NORAD_CAT_ID": 33768, "ELEMENT_SET_NO": 999, "REV_AT_EPOCH": 83193, "BSTAR": 0.00062129865, "MEAN_MOTION_DOT": 6.8e-06, "MEAN_MOTION_DDOT": 0}, "tle": {"line1": "1 33768U 93036R   25339.19738787  .00000680  00000+0  62130-3 0  9998", "line2": "2 33768  74.0687 232.0390 0365934  31.4405 123.0069 13.58445141831938"}}, "geometry": {"type": "Point", "coordinates": [45.38563808652389, 19.181112019513833]}}]}